start=new Date('2021-08-30T00:00:00.000Z').valueOf();
sats=[{"OBJECT_ID":"2021-044Q","RA_OF_ASC_NODE":"342.6853","ELEMENT_SET_NO":"999","PERIOD":"95.592","MEAN_MOTION":"15.06404596","COUNTRY_CODE":"US","SITE":"AFETR","FILE":"3105271","DECAY_DATE":null,"BSTAR":"-0.00001329700000","MEAN_MOTION_DDOT":"0.0000000000000","INCLINATION":"53.0549","APOAPSIS":"547.934","RCS_SIZE":"LARGE","ARG_OF_PERICENTER":"142.0539","LAUNCH_DATE":"2021-05-26","SEMIMAJOR_AXIS":"6925.334","MEAN_ELEMENT_THEORY":"SGP4","REV_AT_EPOCH":"1454","PERIAPSIS":"546.465","NORAD_CAT_ID":"48652","TIME_SYSTEM":"UTC","REF_FRAME":"TEME","CLASSIFICATION_TYPE":"U","CENTER_NAME":"EARTH","OBJECT_TYPE":"PAYLOAD","ECCENTRICITY":"0.00010610","TLE_LINE1":"1 48652U 21044Q   21241.58374421 -.00000479  00000-0 -13297-4 0  9998","MEAN_ANOMALY":"218.0524","MEAN_MOTION_DOT":"-0.00000479","EPHEMERIS_TYPE":"0","OBJECT_NAME":"STARLINK-2727","EPOCH":"2021-08-29T14:00:35.499744","TLE_LINE2":"2 48652  53.0549 342.6853 0001061 142.0539 218.0524 15.06404596 14542","GP_ID":"183701822"},{"MEAN_MOTION_DDOT":"0.0000000000000","BSTAR":"0.00007318700000","DECAY_DATE":null,"FILE":"3105271","ARG_OF_PERICENTER":"145.8569","RCS_SIZE":"LARGE","APOAPSIS":"547.877","INCLINATION":"53.0562","ELEMENT_SET_NO":"999","OBJECT_ID":"2021-044R","RA_OF_ASC_NODE":"342.7019","SITE":"AFETR","MEAN_MOTION":"15.06399471","COUNTRY_CODE":"US","PERIOD":"95.592","EPHEMERIS_TYPE":"0","MEAN_MOTION_DOT":"0.00000809","MEAN_ANOMALY":"214.2482","TLE_LINE1":"1 48653U 21044R   21241.58005342  .00000809  00000-0  73187-4 0  9991","TLE_LINE2":"2 48653  53.0562 342.7019 0000955 145.8569 214.2482 15.06399471 14544","GP_ID":"183701574","EPOCH":"2021-08-29T13:55:16.615488","OBJECT_NAME":"STARLINK-2720","REF_FRAME":"TEME","NORAD_CAT_ID":"48653","TIME_SYSTEM":"UTC","PERIAPSIS":"546.554","MEAN_ELEMENT_THEORY":"SGP4","REV_AT_EPOCH":"1454","SEMIMAJOR_AXIS":"6925.350","LAUNCH_DATE":"2021-05-26","ECCENTRICITY":"0.00009550","OBJECT_TYPE":"PAYLOAD","CENTER_NAME":"EARTH","CLASSIFICATION_TYPE":"U"},{"TLE_LINE2":"2 48654  53.0577 342.1295 0001039 139.5595 220.5471 15.06402232 14564","GP_ID":"183702102","EPOCH":"2021-08-29T17:01:03.400032","OBJECT_NAME":"STARLINK-2651","MEAN_ANOMALY":"220.5471","MEAN_MOTION_DOT":"-0.00000594","EPHEMERIS_TYPE":"0","TLE_LINE1":"1 48654U 21044S   21241.70906713 -.00000594  00000-0 -20994-4 0  9999","ECCENTRICITY":"0.00010390","CLASSIFICATION_TYPE":"U","CENTER_NAME":"EARTH","OBJECT_TYPE":"PAYLOAD","PERIAPSIS":"546.487","TIME_SYSTEM":"UTC","NORAD_CAT_ID":"48654","REF_FRAME":"TEME","LAUNCH_DATE":"2021-05-26","SEMIMAJOR_AXIS":"6925.342","REV_AT_EPOCH":"1456","MEAN_ELEMENT_THEORY":"SGP4","ARG_OF_PERICENTER":"139.5595","INCLINATION":"53.0577","APOAPSIS":"547.926","RCS_SIZE":"LARGE","MEAN_MOTION_DDOT":"0.0000000000000","FILE":"3105271","DECAY_DATE":null,"BSTAR":"-0.00002099400000","SITE":"AFETR","PERIOD":"95.592","MEAN_MOTION":"15.06402232","COUNTRY_CODE":"US","RA_OF_ASC_NODE":"342.1295","OBJECT_ID":"2021-044S","ELEMENT_SET_NO":"999"},{"OBJECT_NAME":"STARLINK-2657","GP_ID":"183702009","TLE_LINE2":"2 48655  53.0560 341.8456 0001261 141.8057 218.3022 15.06408706 14578","EPOCH":"2021-08-29T18:31:17.019264","TLE_LINE1":"1 48655U 21044T   21241.77172476  .00001295  00000-0  10580-3 0  9994","EPHEMERIS_TYPE":"0","MEAN_ANOMALY":"218.3022","MEAN_MOTION_DOT":"0.00001295","OBJECT_TYPE":"PAYLOAD","CLASSIFICATION_TYPE":"U","CENTER_NAME":"EARTH","ECCENTRICITY":"0.00012610","MEAN_ELEMENT_THEORY":"SGP4","REV_AT_EPOCH":"1457","LAUNCH_DATE":"2021-05-26","SEMIMAJOR_AXIS":"6925.322","REF_FRAME":"TEME","PERIAPSIS":"546.314","NORAD_CAT_ID":"48655","TIME_SYSTEM":"UTC","RCS_SIZE":"LARGE","APOAPSIS":"548.060","INCLINATION":"53.0560","ARG_OF_PERICENTER":"141.8057","DECAY_DATE":null,"BSTAR":"0.00010580000000","FILE":"3105271","MEAN_MOTION_DDOT":"0.0000000000000","COUNTRY_CODE":"US","MEAN_MOTION":"15.06408706","PERIOD":"95.592","SITE":"AFETR","ELEMENT_SET_NO":"999","RA_OF_ASC_NODE":"341.8456","OBJECT_ID":"2021-044T"},{"MEAN_MOTION_DDOT":"0.0000000000000","FILE":"3105271","DECAY_DATE":null,"BSTAR":"-0.00007758600000","ARG_OF_PERICENTER":"120.6749","INCLINATION":"53.0566","APOAPSIS":"547.793","RCS_SIZE":"LARGE","OBJECT_ID":"2021-044U","RA_OF_ASC_NODE":"342.1580","ELEMENT_SET_NO":"999","SITE":"AFETR","PERIOD":"95.592","COUNTRY_CODE":"US","MEAN_MOTION":"15.06394612","MEAN_MOTION_DOT":"-0.00001436","MEAN_ANOMALY":"239.4320","EPHEMERIS_TYPE":"0","TLE_LINE1":"1 48656U 21044U   21241.70170100 -.00001436  00000-0 -77586-4 0  9999","GP_ID":"183701481","TLE_LINE2":"2 48656  53.0566 342.1580 0000813 120.6749 239.4320 15.06394612 14566","EPOCH":"2021-08-29T16:50:26.966400","OBJECT_NAME":"STARLINK-2701","PERIAPSIS":"546.667","NORAD_CAT_ID":"48656","TIME_SYSTEM":"UTC","REF_FRAME":"TEME","LAUNCH_DATE":"2021-05-26","SEMIMAJOR_AXIS":"6925.365","MEAN_ELEMENT_THEORY":"SGP4","REV_AT_EPOCH":"1456","ECCENTRICITY":"0.00008130","CLASSIFICATION_TYPE":"U","CENTER_NAME":"EARTH","OBJECT_TYPE":"PAYLOAD"},{"SITE":"AFETR","COUNTRY_CODE":"US","MEAN_MOTION":"15.06399480","PERIOD":"95.592","ELEMENT_SET_NO":"999","OBJECT_ID":"2021-044V","RA_OF_ASC_NODE":"341.8770","ARG_OF_PERICENTER":"134.2109","APOAPSIS":"547.774","RCS_SIZE":"LARGE","INCLINATION":"53.0566","MEAN_MOTION_DDOT":"0.0000000000000","DECAY_DATE":null,"BSTAR":"0.00001697000000","FILE":"3105271","ECCENTRICITY":"0.00008070","OBJECT_TYPE":"PAYLOAD","CLASSIFICATION_TYPE":"U","CENTER_NAME":"EARTH","REF_FRAME":"TEME","PERIAPSIS":"546.656","NORAD_CAT_ID":"48657","TIME_SYSTEM":"UTC","MEAN_ELEMENT_THEORY":"SGP4","REV_AT_EPOCH":"1457","LAUNCH_DATE":"2021-05-26","SEMIMAJOR_AXIS":"6925.350","TLE_LINE2":"2 48657  53.0566 341.8770 0000807 134.2109 225.8946 15.06399480 14570","GP_ID":"183701916","EPOCH":"2021-08-29T18:20:40.461216","OBJECT_NAME":"STARLINK-2734","EPHEMERIS_TYPE":"0","MEAN_MOTION_DOT":"-0.00000028","MEAN_ANOMALY":"225.8946","TLE_LINE1":"1 48657U 21044V   21241.76435719 -.00000028  00000-0  16970-4 0  9991"},{"MEAN_ELEMENT_THEORY":"SGP4","REV_AT_EPOCH":"1457","LAUNCH_DATE":"2021-05-26","SEMIMAJOR_AXIS":"6925.352","REF_FRAME":"TEME","PERIAPSIS":"546.400","NORAD_CAT_ID":"48658","TIME_SYSTEM":"UTC","OBJECT_TYPE":"PAYLOAD","CLASSIFICATION_TYPE":"U","CENTER_NAME":"EARTH","ECCENTRICITY":"0.00011800","TLE_LINE1":"1 48658U 21044W   21241.76066960 -.00001121  00000-0 -56403-4 0  9991","EPHEMERIS_TYPE":"0","MEAN_MOTION_DOT":"-0.00001121","MEAN_ANOMALY":"251.3369","OBJECT_NAME":"STARLINK-2647","TLE_LINE2":"2 48658  53.0577 341.8989 0001180 108.7748 251.3369 15.06398929 14575","GP_ID":"183701761","EPOCH":"2021-08-29T18:15:21.853440","ELEMENT_SET_NO":"999","RA_OF_ASC_NODE":"341.8989","OBJECT_ID":"2021-044W","COUNTRY_CODE":"US","MEAN_MOTION":"15.06398929","PERIOD":"95.592","SITE":"AFETR","DECAY_DATE":null,"BSTAR":"-0.00005640300000","FILE":"3105271","MEAN_MOTION_DDOT":"0.0000000000000","APOAPSIS":"548.034","RCS_SIZE":"LARGE","INCLINATION":"53.0577","ARG_OF_PERICENTER":"108.7748"},{"OBJECT_TYPE":"PAYLOAD","CENTER_NAME":"EARTH","CLASSIFICATION_TYPE":"U","ECCENTRICITY":"0.00009280","REV_AT_EPOCH":"1456","MEAN_ELEMENT_THEORY":"SGP4","SEMIMAJOR_AXIS":"6925.360","LAUNCH_DATE":"2021-05-26","REF_FRAME":"TEME","NORAD_CAT_ID":"48659","TIME_SYSTEM":"UTC","PERIAPSIS":"546.582","OBJECT_NAME":"STARLINK-2717","TLE_LINE2":"2 48659  53.0573 342.2100 0000928 131.2934 228.8135 15.06396238 14569","EPOCH":"2021-08-29T16:34:31.091232","GP_ID":"183701668","TLE_LINE1":"1 48659U 21044X   21241.69063763  .00000633  00000-0  61378-4 0  9994","EPHEMERIS_TYPE":"0","MEAN_ANOMALY":"228.8135","MEAN_MOTION_DOT":"0.00000633","MEAN_MOTION":"15.06396238","COUNTRY_CODE":"US","PERIOD":"95.592","SITE":"AFETR","ELEMENT_SET_NO":"999","OBJECT_ID":"2021-044X","RA_OF_ASC_NODE":"342.2100","APOAPSIS":"547.868","RCS_SIZE":"LARGE","INCLINATION":"53.0573","ARG_OF_PERICENTER":"131.2934","BSTAR":"0.00006137800000","DECAY_DATE":null,"FILE":"3105271","MEAN_MOTION_DDOT":"0.0000000000000"},{"ECCENTRICITY":"0.00009720","CENTER_NAME":"EARTH","CLASSIFICATION_TYPE":"U","OBJECT_TYPE":"PAYLOAD","NORAD_CAT_ID":"48660","TIME_SYSTEM":"UTC","PERIAPSIS":"546.546","REF_FRAME":"TEME","SEMIMAJOR_AXIS":"6925.354","LAUNCH_DATE":"2021-05-26","MEAN_ELEMENT_THEORY":"SGP4","REV_AT_EPOCH":"1457","TLE_LINE2":"2 48660  53.0568 341.9274 0000972 121.4339 238.6745 15.06398098 14575","GP_ID":"183701823","EPOCH":"2021-08-29T18:04:44.478048","OBJECT_NAME":"STARLINK-2688","MEAN_ANOMALY":"238.6745","MEAN_MOTION_DOT":"0.00000455","EPHEMERIS_TYPE":"0","TLE_LINE1":"1 48660U 21044Y   21241.75329257  .00000455  00000-0  49401-4 0  9991","SITE":"AFETR","PERIOD":"95.592","MEAN_MOTION":"15.06398098","COUNTRY_CODE":"US","OBJECT_ID":"2021-044Y","RA_OF_ASC_NODE":"341.9274","ELEMENT_SET_NO":"999","ARG_OF_PERICENTER":"121.4339","INCLINATION":"53.0568","RCS_SIZE":"LARGE","APOAPSIS":"547.893","MEAN_MOTION_DDOT":"0.0000000000000","FILE":"3105271","BSTAR":"0.00004940100000","DECAY_DATE":null},{"NORAD_CAT_ID":"48661","TIME_SYSTEM":"UTC","PERIAPSIS":"546.356","REF_FRAME":"TEME","SEMIMAJOR_AXIS":"6925.359","LAUNCH_DATE":"2021-05-26","MEAN_ELEMENT_THEORY":"SGP4","REV_AT_EPOCH":"363","ECCENTRICITY":"0.00012540","CENTER_NAME":"EARTH","CLASSIFICATION_TYPE":"U","OBJECT_TYPE":"PAYLOAD","MEAN_ANOMALY":"60.7084","MEAN_MOTION_DOT":"-0.00028842","EPHEMERIS_TYPE":"0","TLE_LINE1":"1 48661U 21044Z   21241.91667824 -.00028842  00000-0 -19254-2 0  9998","GP_ID":"183701575","TLE_LINE2":"2 48661  53.0544 331.1907 0001254 100.9548  60.7084 15.06396501  3634","EPOCH":"2021-08-29T22:00:00.999936","OBJECT_NAME":"STARLINK-2708","RA_OF_ASC_NODE":"331.1907","OBJECT_ID":"2021-044Z","ELEMENT_SET_NO":"999","SITE":"AFETR","PERIOD":"95.592","COUNTRY_CODE":"US","MEAN_MOTION":"15.06396501","MEAN_MOTION_DDOT":"0.0000000000000","FILE":"3105271","BSTAR":"-0.00192540000000","DECAY_DATE":null,"ARG_OF_PERICENTER":"100.9548","INCLINATION":"53.0544","APOAPSIS":"548.093","RCS_SIZE":"LARGE"}];
